     2.11           N: GPS NAV DATA                         RINEX VERSION / TYPE
teqc  2018Dec12     gpsops              20220513 01:04:02UTCPGM / RUN BY / DATE
Linux 2.6.32-573.12.1.x86_64|x86_64|gcc -static|Linux 64|=+ COMMENT
CHPI                                    MARKER NAME         COMMENT
41609M003                               MARKER NUMBER       COMMENT
4164613.9484 -4162456.9866 -2445028.7316                    COMMENT
                                                            COMMENT
This data is provided as a public service by NASA/JPL.      COMMENT
No warranty is expressed or implied regarding suitability   COMMENT
for use.  For further information, contact:                 COMMENT
Dave Stowers, NASA/JPL m/s 238-600                          COMMENT
4800 Oak Grove Drive, Pasadena CA 91109 USA                 COMMENT
                                                            END OF HEADER
23 22  5 12  6  0  0.0-2.130772918463D-05-2.501110429876D-12 0.000000000000D+00
    1.540000000000D+02 6.812500000000D+00 4.778413325809D-09 1.621878743131D-01
    4.451721906662D-07 2.122111269273D-03 4.557892680168D-06 5.153704267502D+03
    3.672000000000D+05 9.313225746155D-09-2.408421720386D+00-4.656612873077D-08
    9.684939999940D-01 2.958750000000D+02 3.001185443877D+00-8.320346575832D-09
    3.407284784231D-10 1.000000000000D+00 2.209000000000D+03 0.000000000000D+00
    2.000000000000D+00 0.000000000000D+00-8.381903171539D-09 9.220000000000D+02
    3.600180000000D+05 4.000000000000D+00
15 22  5 12  6  0  0.0-6.191432476044D-05 2.955857780762D-12 0.000000000000D+00
    9.600000000000D+01-7.478125000000D+01 5.456298705314D-09 2.138237622980D+00
   -4.086643457413D-06 1.403281954117D-02 7.089227437973D-06 5.153784992218D+03
    3.672000000000D+05-4.842877388000D-08-1.460682427378D+00-3.017485141754D-07
    9.298802290154D-01 2.279687500000D+02 1.090697836240D+00-8.363562661670D-09
   -2.732256666600D-10 1.000000000000D+00 2.209000000000D+03 0.000000000000D+00
    2.000000000000D+00 0.000000000000D+00-1.071020960808D-08 9.600000000000D+01
    3.600180000000D+05 4.000000000000D+00
26 22  5 12  6  0  0.0 2.050367183983D-04 2.614797267597D-12 0.000000000000D+00
    6.200000000000D+01 5.150000000000D+01 5.290220358912D-09-1.340329314164D+00
    2.704560756683D-06 6.931020296179D-03 4.140660166740D-06 5.153742431641D+03
    3.672000000000D+05 1.098960638046D-07 7.058755487442D-01-1.620501279831D-07
    9.378549772871D-01 2.888125000000D+02 3.893552415686D-01-8.592500769289D-09
    4.821629411647D-11 1.000000000000D+00 2.209000000000D+03 0.000000000000D+00
    2.000000000000D+00 0.000000000000D+00 6.984919309616D-09 6.200000000000D+01
    3.619080000000D+05 4.000000000000D+00
10 22  5 12  6  0  0.0-4.113255999982D-04-1.421085471520D-11 0.000000000000D+00
    5.000000000000D+01 6.156250000000D+00 4.655908222980D-09-1.122894609228D+00
    4.582107067108D-07 7.583600934595D-03 4.349276423454D-06 5.153676298141D+03
    3.672000000000D+05 1.210719347000D-07-2.383130988663D+00 2.421438694000D-08
    9.734010807364D-01 2.989375000000D+02-2.493778781496D+00-8.273916070386D-09
    3.550147877909D-10 1.000000000000D+00 2.209000000000D+03 0.000000000000D+00
    2.000000000000D+00 0.000000000000D+00 2.328306436539D-09 5.000000000000D+01
    3.637980000000D+05 4.000000000000D+00
13 22  5 12  6  0  0.0 3.100745379925D-04 6.821210263297D-12 0.000000000000D+00
    7.000000000000D+01-5.815625000000D+01 4.432684639108D-09 2.665309732803D+00
   -3.091990947723D-06 5.899494164623D-03 9.337440133095D-06 5.153677738190D+03
    3.672000000000D+05-4.470348358154D-08-1.198048252684D+00-8.568167686462D-08
    9.684006599688D-01 2.037812500000D+02 9.202035203874D-01-7.850326997630D-09
   -3.210848030423D-10 1.000000000000D+00 2.209000000000D+03 0.000000000000D+00
    2.000000000000D+00 0.000000000000D+00-1.164153218269D-08 7.000000000000D+01
    3.656580000000D+05 4.000000000000D+00
16 22  5 12  5 59 44.0-5.001164972782D-04-3.296918293927D-12 0.000000000000D+00
    1.800000000000D+01 3.534375000000D+01 4.593762777230D-09-2.233931866583D+00
    1.825392246246D-06 1.273983123247D-02 3.796070814133D-06 5.153642374039D+03
    3.671840000000D+05 6.146728992462D-08 8.508210492547D-01-1.043081283569D-07
    9.693431522560D-01 3.113437500000D+02 7.283613661916D-01-8.138553289126D-09
    8.286059433349D-11 1.000000000000D+00 2.209000000000D+03 0.000000000000D+00
    2.000000000000D+00 0.000000000000D+00-1.024454832077D-08 1.800000000000D+01
    3.666180000000D+05 4.000000000000D+00
23 22  5 12  8  0  0.0-2.132588997483D-05-2.501110429876D-12 0.000000000000D+00
    1.550000000000D+02 1.375000000000D+01 4.674480425158D-09 1.212015550821D+00
    6.388872861862D-07 2.122784731910D-03 4.544854164124D-06 5.153706113815D+03
    3.744000000000D+05 2.607703208923D-08-2.408481214339D+00 1.676380634308D-08
    9.684965937477D-01 2.973437500000D+02 3.001520965602D+00-8.264272811563D-09
    3.185846989029D-10 1.000000000000D+00 2.209000000000D+03 0.000000000000D+00
    2.000000000000D+00 0.000000000000D+00-8.381903171539D-09 9.230000000000D+02
    3.672180000000D+05 4.000000000000D+00
18 22  5 12  8  0  0.0 1.722960732877D-04-1.011812855722D-11 0.000000000000D+00
    1.190000000000D+02 2.218750000000D+01 3.971594004260D-09 2.287683496914D+00
    1.175329089165D-06 2.295484533533D-03 1.027248799801D-05 5.153608800888D+03
    3.744000000000D+05-4.470348358154D-08 2.875626282131D+00 5.587935447693D-09
    9.717565428406D-01 1.863437500000D+02 3.039433017202D+00-7.801753545779D-09
    2.542963067476D-10 1.000000000000D+00 2.209000000000D+03 0.000000000000D+00
    2.000000000000D+00 0.000000000000D+00-8.381903171539D-09 6.310000000000D+02
    3.672180000000D+05 4.000000000000D+00
29 22  5 12  8  0  0.0-5.127666518092D-04-3.979039320257D-12 0.000000000000D+00
    1.360000000000D+02-5.150000000000D+01 3.979094316679D-09-1.989972898862D+00
   -2.723187208176D-06 2.143869874999D-03 7.800757884979D-06 5.153710927963D+03
    3.744000000000D+05-3.352761268616D-08 1.883811387163D+00 6.519258022308D-08
    9.807812464357D-01 2.399062500000D+02 2.253000798938D+00-7.904257815494D-09
   -4.203746531488D-10 1.000000000000D+00 2.209000000000D+03 0.000000000000D+00
    2.000000000000D+00 0.000000000000D+00-1.024454832077D-08 1.360000000000D+02
    3.672180000000D+05 4.000000000000D+00
25 22  5 12  8  0  0.0 3.236574120820D-04 4.888534022029D-12 0.000000000000D+00
    7.100000000000D+01 4.821875000000D+01 5.014851745847D-09 3.767743113967D-01
    2.620741724968D-06 1.051963469945D-02 4.228204488754D-06 5.153671983719D+03
    3.744000000000D+05-6.519258022308D-08 7.544161288256D-01 1.005828380585D-07
    9.569874032123D-01 2.944687500000D+02 1.002951045783D+00-8.652146110900D-09
   -5.178787145843D-11 1.000000000000D+00 2.209000000000D+03 0.000000000000D+00
    2.000000000000D+00 0.000000000000D+00 5.587935447693D-09 7.100000000000D+01
    3.672180000000D+05 4.000000000000D+00
26 22  5 12  8  0  0.0 2.050553448498D-04 2.614797267597D-12 0.000000000000D+00
    6.300000000000D+01 4.912500000000D+01 5.452012812503D-09-2.901450586892D-01
    2.473592758179D-06 6.931157782674D-03 3.935769200325D-06 5.153742986679D+03
    3.744000000000D+05 5.960464477539D-08 7.058135488131D-01 4.656612873077D-08
    9.378541946260D-01 2.892812500000D+02 3.893153156084D-01-8.797509308718D-09
   -2.857261873569D-11 1.000000000000D+00 2.209000000000D+03 0.000000000000D+00
    2.000000000000D+00 0.000000000000D+00 6.984919309616D-09 6.300000000000D+01
    3.672180000000D+05 4.000000000000D+00
10 22  5 12  8  0  0.0-4.114280454814D-04-1.421085471520D-11 0.000000000000D+00
    5.100000000000D+01 7.531250000000D+00 4.614477925813D-09-7.271977640772D-02
    5.122274160385D-07 7.583704311401D-03 4.624947905540D-06 5.153676422119D+03
    3.744000000000D+05 5.774199962616D-08-2.383190782513D+00 8.940696716309D-08
    9.734033204640D-01 2.991875000000D+02-2.493773378940D+00-8.331061307858D-09
    3.403713206889D-10 1.000000000000D+00 2.209000000000D+03 0.000000000000D+00
    2.000000000000D+00 0.000000000000D+00 2.328306436539D-09 5.100000000000D+01
    3.672180000000D+05 4.000000000000D+00
15 22  5 12  8  0  0.0-6.189290434122D-05 2.955857780762D-12 0.000000000000D+00
    1.030000000000D+02-7.925000000000D+01 5.459155967187D-09-3.094830029533D+00
   -4.319474101067D-06 1.403335132636D-02 6.854534149170D-06 5.153784141541D+03
    3.744000000000D+05 1.117587089539D-07-1.460742431888D+00-2.458691596985D-07
    9.298784032937D-01 2.306875000000D+02 1.090699740959D+00-8.335704358402D-09
   -2.414386283166D-10 1.000000000000D+00 2.209000000000D+03 0.000000000000D+00
    2.000000000000D+00 0.000000000000D+00-1.071020960808D-08 1.030000000000D+02
    3.672180000000D+05 4.000000000000D+00
 5 22  5 12  8  0  0.0-8.154660463333D-05-1.364242052659D-12 0.000000000000D+00
    1.800000000000D+01 2.028125000000D+01 4.784485007291D-09-1.664884703279D+00
    1.141801476479D-06 5.966231808998D-03 3.956258296967D-06 5.153714601517D+03
    3.744000000000D+05 9.872019290924D-08-2.421975104870D+00 2.421438694000D-08
    9.606319885782D-01 2.950312500000D+02 1.018956452129D+00-8.301774373654D-09
    4.328751738457D-10 1.000000000000D+00 2.209000000000D+03 0.000000000000D+00
    2.000000000000D+00 0.000000000000D+00-1.117587089539D-08 1.800000000000D+01
    3.672180000000D+05 4.000000000000D+00
31 22  5 12  8  0  0.0-1.772735267878D-04-1.591615728103D-12 0.000000000000D+00
    6.700000000000D+01 5.334375000000D+01 4.669480216880D-09 8.254242852289D-01
    3.054738044739D-06 1.043247524649D-02 1.095980405807D-05 5.153738985062D+03
    3.744000000000D+05-1.490116119385D-08-2.621777705851D-01 1.806765794754D-07
    9.553768518292D-01 1.636562500000D+02 3.895987033212D-01-8.134981711784D-09
    1.214336296267D-11 1.000000000000D+00 2.209000000000D+03 0.000000000000D+00
    2.000000000000D+00 0.000000000000D+00-1.350417733192D-08 6.700000000000D+01
    3.672180000000D+05 4.000000000000D+00
